[
    {
        "Altitude(m)": 581531.00608918,
        "Argument of Periapsis(deg)": -0.037671934638287344,
        "Eccentricity": 0.0,
        "Inclination(deg)": 97.0,
        "Latitude(deg)": -46.77703374883779,
        "Longitude(deg)": 128.6055594194699,
        "Mean Anomaly(deg)": 227.00643878197914,
        "RAAN(deg)": 60.00991175603085,
        "Satellite Name": "Starlink Shell 3 1727",
        "Satellite Number": 1727,
        "Semi-Major Axis(m)": 6938478.169268562,
        "Time(s)": 950
    },
    {
        "Altitude(m)": 581780.499873013,
        "Argument of Periapsis(deg)": -0.03806848131869037,
        "Eccentricity": 0.0,
        "Inclination(deg)": 97.0,
        "Latitude(deg)": -47.390825218695085,
        "Longitude(deg)": 128.40080516967143,
        "Mean Anomaly(deg)": 227.63191497968418,
        "RAAN(deg)": 60.01001609030486,
        "Satellite Name": "Starlink Shell 3 1727",
        "Satellite Number": 1727,
        "Semi-Major Axis(m)": 6938478.169268562,
        "Time(s)": 960
    },
    {
        "Altitude(m)": 582028.9165074604,
        "Argument of Periapsis(deg)": -0.0384650279990934,
        "Eccentricity": 0.0,
        "Inclination(deg)": 97.0,
        "Latitude(deg)": -48.00428677416184,
        "Longitude(deg)": 128.1922339244181,
        "Mean Anomaly(deg)": 228.2573911773892,
        "RAAN(deg)": 60.01012042457886,
        "Satellite Name": "Starlink Shell 3 1727",
        "Satellite Number": 1727,
        "Semi-Major Axis(m)": 6938478.169268562,
        "Time(s)": 970
    },
    {
        "Altitude(m)": 582276.1576276937,
        "Argument of Periapsis(deg)": -0.03886157467949641,
        "Eccentricity": 0.0,
        "Inclination(deg)": 97.0,
        "Latitude(deg)": -48.61740796437136,
        "Longitude(deg)": 127.97967179270773,
        "Mean Anomaly(deg)": 228.8828673750943,
        "RAAN(deg)": 60.01022475885287,
        "Satellite Name": "Starlink Shell 3 1727",
        "Satellite Number": 1727,
        "Semi-Major Axis(m)": 6938478.169268562,
        "Time(s)": 980
    },
    {
        "Altitude(m)": 582522.1252327064,
        "Argument of Periapsis(deg)": -0.03925812135989944,
        "Eccentricity": 0.0,
        "Inclination(deg)": 97.0,
        "Latitude(deg)": -49.23017774557952,
        "Longitude(deg)": 127.76293532211653,
        "Mean Anomaly(deg)": 229.50834357279928,
        "RAAN(deg)": 60.010329093126884,
        "Satellite Name": "Starlink Shell 3 1727",
        "Satellite Number": 1727,
        "Semi-Major Axis(m)": 6938478.169268562,
        "Time(s)": 990
    }
]